ZHONGXING-10            
1 37677U 11026A   26064.01591632 -.00000196  00000+0  00000+0 0  9990
2 37677   0.7778  85.5599 0002695 262.1488 266.2375  1.00269049 53959
SES-3                   
1 37748U 11035A   26064.20627701 -.00000110  00000+0  00000+0 0  9993
2 37748   1.0579  84.2971 0003579 267.1143 142.7791  1.00272262 53553
KAZSAT-2                
1 37749U 11035B   26063.51425398 -.00000209  00000+0  00000+0 0  9994
2 37749   0.0172 123.1438 0000545 192.8375 117.9108  1.00272426 52348
ASTRA 1N                
1 37775U 11041A   26064.23045714  .00000111  00000+0  00000+0 0  9991
2 37775   0.0697  22.2220 0004138 357.1581 245.7504  1.00274390 43481
BSAT-3C (JCSAT-110R)    
1 37776U 11041B   26064.03450293 -.00000360  00000+0  00000+0 0  9999
2 37776   0.0324  67.7035 0000798  13.0602 204.3875  1.00270707 49427
PAKSAT-1R               
1 37779U 11042A   26064.19558707  .00000145  00000+0  00000+0 0  9999
2 37779   0.4193  85.7587 0002621 306.5863 239.0487  1.00278945 53438
ZHONGXING-1A            
1 37804U 11047A   26064.27075731  .00000106  00000+0  00000+0 0  9990
2 37804   3.4504  79.6939 0004086 263.7868 139.5413  1.00029273 26290
COSMOS 2473             
1 37806U 11048A   26063.12697423  .00000122  00000+0  00000+0 0  9992
2 37806   5.3103  74.7835 0005253 159.2985 181.8603  1.00208542  6416
SES-2                   
1 37809U 11049A   26064.20939702 -.00000204  00000+0  00000+0 0  9997
2 37809   0.0213  76.6861 0002917 267.8196 166.8077  1.00271998 52927
ARABSAT-5C              
1 37810U 11049B   26063.74322974  .00000113  00000+0  00000+0 0  9992
2 37810   0.0571 352.0840 0002520 355.0894 102.9006  1.00274597 52997
EUTELSAT 7 WEST A       
1 37816U 11051A   26064.22517044 -.00000069  00000+0  00000+0 0  9990
2 37816   0.0695  10.3380 0001124 231.0199 355.3386  1.00272008 52836
QUETZSAT 1              
1 37826U 11054A   26064.28271736 -.00000250  00000+0  00000+0 0  9997
2 37826   0.0514 290.9614 0002782  71.0346 185.7855  1.00271080 48830
INTELSAT 18 (IS-18)     
1 37834U 11056A   26064.26235061  .00000044  00000+0  00000+0 0  9997
2 37834   0.0414 269.8463 0001942  70.0367  97.5393  1.00273962 52769
EUTELSAT 16A            
1 37836U 11057A   26064.22976380  .00000095  00000+0  00000+0 0  9998
2 37836   0.0576 355.0977 0005477 351.1851 275.3808  1.00271922  6294
VIASAT-1                
1 37843U 11059A   26063.48864072  .00000000  00000+0  00000+0 0  9995
2 37843   0.0244 156.6576 0002412 195.6319 230.7489  1.00269201 46279
ASIASAT 7               
1 37933U 11069A   26064.16503164 -.00000342  00000+0  00000+0 0  9994
2 37933   0.0105 149.4647 0000969 192.6807 345.6144  1.00268394 43811
AMOS-5                  
1 37950U 11074A   26062.96526998 -.00000363  00000+0  00000+0 0  9998
2 37950   8.5698  61.8980 0002073 294.1993 265.7303  1.00202067 51946
