[{"OBJECT_NAME":"ZHONGXING-10","OBJECT_ID":"2011-026A","EPOCH":"2026-03-05T00:22:55.170048","MEAN_MOTION":1.00269049,"ECCENTRICITY":0.0002695,"INCLINATION":0.7778,"RA_OF_ASC_NODE":85.5599,"ARG_OF_PERICENTER":262.1488,"MEAN_ANOMALY":266.2375,"EPHEMERIS_TYPE":0,"CLASSIFICATION_TYPE":"U","NORAD_CAT_ID":37677,"ELEMENT_SET_NO":999,"REV_AT_EPOCH":5395,"BSTAR":0,"MEAN_MOTION_DOT":-1.96e-6,"MEAN_MOTION_DDOT":0},{"OBJECT_NAME":"SES-3","OBJECT_ID":"2011-035A","EPOCH":"2026-03-05T04:57:02.333664","MEAN_MOTION":1.00272262,"ECCENTRICITY":0.00035791,"INCLINATION":1.0579,"RA_OF_ASC_NODE":84.2971,"ARG_OF_PERICENTER":267.1143,"MEAN_ANOMALY":142.7791,"EPHEMERIS_TYPE":0,"CLASSIFICATION_TYPE":"U","NORAD_CAT_ID":37748,"ELEMENT_SET_NO":999,"REV_AT_EPOCH":5355,"BSTAR":0,"MEAN_MOTION_DOT":-1.1e-6,"MEAN_MOTION_DDOT":0},{"OBJECT_NAME":"KAZSAT-2","OBJECT_ID":"2011-035B","EPOCH":"2026-03-04T12:20:31.543872","MEAN_MOTION":1.00272426,"ECCENTRICITY":5.455e-5,"INCLINATION":0.0172,"RA_OF_ASC_NODE":123.1438,"ARG_OF_PERICENTER":192.8375,"MEAN_ANOMALY":117.9108,"EPHEMERIS_TYPE":0,"CLASSIFICATION_TYPE":"U","NORAD_CAT_ID":37749,"ELEMENT_SET_NO":999,"REV_AT_EPOCH":5234,"BSTAR":0,"MEAN_MOTION_DOT":-2.09e-6,"MEAN_MOTION_DDOT":0},{"OBJECT_NAME":"ASTRA 1N","OBJECT_ID":"2011-041A","EPOCH":"2026-03-05T05:31:51.496896","MEAN_MOTION":1.0027439,"ECCENTRICITY":0.00041388,"INCLINATION":0.0697,"RA_OF_ASC_NODE":22.222,"ARG_OF_PERICENTER":357.1581,"MEAN_ANOMALY":245.7504,"EPHEMERIS_TYPE":0,"CLASSIFICATION_TYPE":"U","NORAD_CAT_ID":37775,"ELEMENT_SET_NO":999,"REV_AT_EPOCH":4348,"BSTAR":0,"MEAN_MOTION_DOT":1.11e-6,"MEAN_MOTION_DDOT":0},{"OBJECT_NAME":"BSAT-3C (JCSAT-110R)","OBJECT_ID":"2011-041B","EPOCH":"2026-03-05T00:49:41.053152","MEAN_MOTION":1.00270707,"ECCENTRICITY":7.989e-5,"INCLINATION":0.0324,"RA_OF_ASC_NODE":67.7035,"ARG_OF_PERICENTER":13.0602,"MEAN_ANOMALY":204.3875,"EPHEMERIS_TYPE":0,"CLASSIFICATION_TYPE":"U","NORAD_CAT_ID":37776,"ELEMENT_SET_NO":999,"REV_AT_EPOCH":4942,"BSTAR":0,"MEAN_MOTION_DOT":-3.6e-6,"MEAN_MOTION_DDOT":0},{"OBJECT_NAME":"PAKSAT-1R","OBJECT_ID":"2011-042A","EPOCH":"2026-03-05T04:41:38.722848","MEAN_MOTION":1.00278945,"ECCENTRICITY":0.00026213,"INCLINATION":0.4193,"RA_OF_ASC_NODE":85.7587,"ARG_OF_PERICENTER":306.5863,"MEAN_ANOMALY":239.0487,"EPHEMERIS_TYPE":0,"CLASSIFICATION_TYPE":"U","NORAD_CAT_ID":37779,"ELEMENT_SET_NO":999,"REV_AT_EPOCH":5343,"BSTAR":0,"MEAN_MOTION_DOT":1.45e-6,"MEAN_MOTION_DDOT":0},{"OBJECT_NAME":"ZHONGXING-1A","OBJECT_ID":"2011-047A","EPOCH":"2026-03-05T06:29:53.431584","MEAN_MOTION":1.00029273,"ECCENTRICITY":0.00040863,"INCLINATION":3.4504,"RA_OF_ASC_NODE":79.6939,"ARG_OF_PERICENTER":263.7868,"MEAN_ANOMALY":139.5413,"EPHEMERIS_TYPE":0,"CLASSIFICATION_TYPE":"U","NORAD_CAT_ID":37804,"ELEMENT_SET_NO":999,"REV_AT_EPOCH":2629,"BSTAR":0,"MEAN_MOTION_DOT":1.06e-6,"MEAN_MOTION_DDOT":0},{"OBJECT_NAME":"COSMOS 2473","OBJECT_ID":"2011-048A","EPOCH":"2026-03-04T03:02:50.573472","MEAN_MOTION":1.00208542,"ECCENTRICITY":0.00052532,"INCLINATION":5.3103,"RA_OF_ASC_NODE":74.7835,"ARG_OF_PERICENTER":159.2985,"MEAN_ANOMALY":181.8603,"EPHEMERIS_TYPE":0,"CLASSIFICATION_TYPE":"U","NORAD_CAT_ID":37806,"ELEMENT_SET_NO":999,"REV_AT_EPOCH":641,"BSTAR":0,"MEAN_MOTION_DOT":1.22e-6,"MEAN_MOTION_DDOT":0},{"OBJECT_NAME":"SES-2","OBJECT_ID":"2011-049A","EPOCH":"2026-03-05T05:01:31.902528","MEAN_MOTION":1.00271998,"ECCENTRICITY":0.00029173,"INCLINATION":0.0213,"RA_OF_ASC_NODE":76.6861,"ARG_OF_PERICENTER":267.8196,"MEAN_ANOMALY":166.8077,"EPHEMERIS_TYPE":0,"CLASSIFICATION_TYPE":"U","NORAD_CAT_ID":37809,"ELEMENT_SET_NO":999,"REV_AT_EPOCH":5292,"BSTAR":0,"MEAN_MOTION_DOT":-2.04e-6,"MEAN_MOTION_DDOT":0},{"OBJECT_NAME":"ARABSAT-5C","OBJECT_ID":"2011-049B","EPOCH":"2026-03-04T17:50:15.049536","MEAN_MOTION":1.00274597,"ECCENTRICITY":0.00025203,"INCLINATION":0.0571,"RA_OF_ASC_NODE":352.084,"ARG_OF_PERICENTER":355.0894,"MEAN_ANOMALY":102.9006,"EPHEMERIS_TYPE":0,"CLASSIFICATION_TYPE":"U","NORAD_CAT_ID":37810,"ELEMENT_SET_NO":999,"REV_AT_EPOCH":5299,"BSTAR":0,"MEAN_MOTION_DOT":1.13e-6,"MEAN_MOTION_DDOT":0},{"OBJECT_NAME":"EUTELSAT 7 WEST A","OBJECT_ID":"2011-051A","EPOCH":"2026-03-05T05:24:14.726016","MEAN_MOTION":1.00272008,"ECCENTRICITY":0.00011242,"INCLINATION":0.0695,"RA_OF_ASC_NODE":10.338,"ARG_OF_PERICENTER":231.0199,"MEAN_ANOMALY":355.3386,"EPHEMERIS_TYPE":0,"CLASSIFICATION_TYPE":"U","NORAD_CAT_ID":37816,"ELEMENT_SET_NO":999,"REV_AT_EPOCH":5283,"BSTAR":0,"MEAN_MOTION_DOT":-6.9e-7,"MEAN_MOTION_DDOT":0},{"OBJECT_NAME":"QUETZSAT 1","OBJECT_ID":"2011-054A","EPOCH":"2026-03-05T06:47:06.779904","MEAN_MOTION":1.0027108,"ECCENTRICITY":0.00027828,"INCLINATION":0.0514,"RA_OF_ASC_NODE":290.9614,"ARG_OF_PERICENTER":71.0346,"MEAN_ANOMALY":185.7855,"EPHEMERIS_TYPE":0,"CLASSIFICATION_TYPE":"U","NORAD_CAT_ID":37826,"ELEMENT_SET_NO":999,"REV_AT_EPOCH":4883,"BSTAR":0,"MEAN_MOTION_DOT":-2.5e-6,"MEAN_MOTION_DDOT":0},{"OBJECT_NAME":"INTELSAT 18 (IS-18)","OBJECT_ID":"2011-056A","EPOCH":"2026-03-05T06:17:47.092704","MEAN_MOTION":1.00273962,"ECCENTRICITY":0.00019426,"INCLINATION":0.0414,"RA_OF_ASC_NODE":269.8463,"ARG_OF_PERICENTER":70.0367,"MEAN_ANOMALY":97.5393,"EPHEMERIS_TYPE":0,"CLASSIFICATION_TYPE":"U","NORAD_CAT_ID":37834,"ELEMENT_SET_NO":999,"REV_AT_EPOCH":5276,"BSTAR":0,"MEAN_MOTION_DOT":4.4e-7,"MEAN_MOTION_DDOT":0},{"OBJECT_NAME":"EUTELSAT 16A","OBJECT_ID":"2011-057A","EPOCH":"2026-03-05T05:30:51.592320","MEAN_MOTION":1.00271922,"ECCENTRICITY":0.00054779,"INCLINATION":0.0576,"RA_OF_ASC_NODE":355.0977,"ARG_OF_PERICENTER":351.1851,"MEAN_ANOMALY":275.3808,"EPHEMERIS_TYPE":0,"CLASSIFICATION_TYPE":"U","NORAD_CAT_ID":37836,"ELEMENT_SET_NO":999,"REV_AT_EPOCH":629,"BSTAR":0,"MEAN_MOTION_DOT":9.5e-7,"MEAN_MOTION_DDOT":0},{"OBJECT_NAME":"VIASAT-1","OBJECT_ID":"2011-059A","EPOCH":"2026-03-04T11:43:38.558208","MEAN_MOTION":1.00269201,"ECCENTRICITY":0.0002412,"INCLINATION":0.0244,"RA_OF_ASC_NODE":156.6576,"ARG_OF_PERICENTER":195.6319,"MEAN_ANOMALY":230.7489,"EPHEMERIS_TYPE":0,"CLASSIFICATION_TYPE":"U","NORAD_CAT_ID":37843,"ELEMENT_SET_NO":999,"REV_AT_EPOCH":4627,"BSTAR":0,"MEAN_MOTION_DOT":0,"MEAN_MOTION_DDOT":0},{"OBJECT_NAME":"ASIASAT 7","OBJECT_ID":"2011-069A","EPOCH":"2026-03-05T03:57:38.733696","MEAN_MOTION":1.00268394,"ECCENTRICITY":9.698e-5,"INCLINATION":0.0105,"RA_OF_ASC_NODE":149.4647,"ARG_OF_PERICENTER":192.6807,"MEAN_ANOMALY":345.6144,"EPHEMERIS_TYPE":0,"CLASSIFICATION_TYPE":"U","NORAD_CAT_ID":37933,"ELEMENT_SET_NO":999,"REV_AT_EPOCH":4381,"BSTAR":0,"MEAN_MOTION_DOT":-3.42e-6,"MEAN_MOTION_DDOT":0},{"OBJECT_NAME":"AMOS-5","OBJECT_ID":"2011-074A","EPOCH":"2026-03-03T23:09:59.326272","MEAN_MOTION":1.00202067,"ECCENTRICITY":0.0002073,"INCLINATION":8.5698,"RA_OF_ASC_NODE":61.898,"ARG_OF_PERICENTER":294.1993,"MEAN_ANOMALY":265.7303,"EPHEMERIS_TYPE":0,"CLASSIFICATION_TYPE":"U","NORAD_CAT_ID":37950,"ELEMENT_SET_NO":999,"REV_AT_EPOCH":5194,"BSTAR":0,"MEAN_MOTION_DOT":-3.63e-6,"MEAN_MOTION_DDOT":0}]
